STARLINK-36280          
1 67211U 25304V   26169.68284816  .00002913  00000+0  25179-3 0  9999
2 67211  70.0010 279.7705 0002924 267.5238  92.5586 14.98337162 29015
STARLINK-36213          
1 67212U 25304W   26169.67452134 -.00001056  00000+0 -80765-4 0  9991
2 67212  70.0015 279.7374 0003367 279.3510  80.7268 14.98311200 29010
STARLINK-36199          
1 67213U 25304X   26169.59521275  .00003318  00000+0  28562-3 0  9993
2 67213  70.0014 279.8625 0003645 267.6435  92.4307 14.98340173 29009
STARLINK-36203          
1 67214U 25304Y   26169.58706194  .00005633  00000+0  47930-3 0  9990
2 67214  70.0013 280.2343 0003193 268.5584  91.5210 14.98342989 28992
STARLINK-36221          
1 67215U 25304Z   26169.31167150  .00002301  00000+0  20053-3 0  9991
2 67215  70.0011 280.8778 0003298 268.7456  91.3325 14.98336991 28952
STARLINK-36212          
1 67216U 25304AA  26169.63712453  .00001994  00000+0  17481-3 0  9997
2 67216  70.0017 280.0059 0003255 268.8936  91.1850 14.98332898 29000
STARLINK-36216          
1 67217U 25304AB  26169.69553578  .00001451  00000+0  12934-3 0  9991
2 67217  70.0019 279.8089 0003128 268.2843  91.7957 14.98331671 29004
STARLINK-36211          
1 67218U 25304AC  26169.68718628  .00001539  00000+0  13673-3 0  9998
2 67218  70.0012 279.7779 0003338 267.8988  92.1789 14.98332892 28981
DISKSAT C               
1 67219U 25305A   26169.10511047  .00008509  00000+0  53211-3 0  9999
2 67219  45.0021  78.1076 0005780 180.2563 179.8311 15.09829049 27469
DISKSAT B               
1 67220U 25305B   26169.09289210  .00003989  00000+0  26515-3 0  9997
2 67220  45.0008  78.8386 0004232 177.1747 182.9154 15.08768129 27456
DISKSAT D               
1 67221U 25305C   26166.50786687  .00002936  00000+0  19779-3 0  9996
2 67221  45.0034  92.5171 0004405 171.9399 188.1548 15.09040086 27066
DISKSAT A               
1 67222U 25305D   26169.45258911  .00006253  00000+0  39735-3 0  9998
2 67222  45.0010  76.4720 0005220 187.9797 172.0997 15.09629044 27503
TJS-23                  
1 67226U 25306A   26169.59784025  .00000012  00000+0  00000+0 0  9994
2 67226   5.5850 297.4791 0005414 171.6767 188.4971  1.00275797  1902
QPS-SAR-15 (SUKUNAMI-I) 
1 67228U 25307A   26169.50518550  .00002688  00000+0  23286-3 0  9992
2 67228  42.0051 220.6622 0010122 356.7086   3.3671 14.99001714 26880
SPACEMOBILE-006         
1 67232U 25309A   26169.68839462  .00002061  00000+0  11386-3 0  9999
2 67232  52.9949 324.7568 0012023 133.7896 226.4094 15.18533247 26824
OBZOR-R 1               
1 67234U 25310A   26168.97357541  .00000089  00000+0  20306-4 0  9998
2 67234  97.9634 176.2488 0001158  89.1702 270.9640 14.75885910 25744
HULIANWANG DIGUI-128    
1 67236U 25311A   26169.54006696 -.00000102  00000+0  47500-4 0  9999
2 67236  50.0076 110.6961 0001035 334.2956  25.7864 13.29322313 23522
HULIANWANG DIGUI-129    
1 67237U 25311B   26169.54837499 -.00000102  00000+0  47459-4 0  9996
2 67237  50.0067 110.7228 0000972 334.1893  25.8930 13.29323624 23529
HULIANWANG DIGUI-130    
1 67238U 25311C   26169.52335016 -.00000101  00000+0  49332-4 0  9994
2 67238  50.0050 111.2182 0001083 332.9351  27.1465 13.29322200 23512
HULIANWANG DIGUI-131    
1 67239U 25311D   26169.53171302 -.00000101  00000+0  49385-4 0  9990
2 67239  50.0042 111.2546 0001077 335.1035  24.9785 13.29322025 23510
HULIANWANG DIGUI-132    
1 67240U 25311E   26169.58181312 -.00000094  00000+0  64781-4 0  9997
2 67240  50.0056 110.8739 0001046 331.2594  28.8220 13.29322829 23529
HULIANWANG DIGUI-133    
1 67241U 25311F   26169.56512558 -.00000094  00000+0  65563-4 0  9995
2 67241  50.0099 110.8531 0001011 334.1190  25.9632 13.29322794 23529
HULIANWANG DIGUI-134    
1 67242U 25311G   26169.57345137 -.00000094  00000+0  63818-4 0  9995
2 67242  50.0027 110.7944 0001031 334.0934  25.9886 13.29322414 23525
HULIANWANG DIGUI-135    
1 67243U 25311H   26169.51498031 -.00000095  00000+0  61612-4 0  9993
2 67243  50.0015 111.1293 0001073 331.4995  28.5818 13.29322268 23519
HULIANWANG DIGUI-136    
1 67244U 25311J   26169.55673904 -.00000098  00000+0  56345-4 0  9992
2 67244  50.0086 110.7924 0000966 333.8808  26.2016 13.29323166 23527
FENGYUN 4C              
1 67246U 25312A   26169.69134069 -.00000329  00000+0  00000+0 0  9993
2 67246   0.0466 138.8787 0000372  72.0370  77.8882  1.00271547  1790
2025-313A               
1 67248U 25313A   26169.69271566  .00000664  00000+0  72451-4 0  9995
2 67248  97.5426 233.9421 0276766 332.2440  26.4222 14.67278440 25242
2025-313B               
1 67249U 25313B   26169.59320521  .00001548  00000+0  12241-3 0  9993
2 67249  97.5116 234.8949 0291793 330.9828  27.5425 14.74275718 25347
2025-313C               
1 67250U 25313C   26169.44555044  .00005812  00000+0  50905-3 0  9996
2 67250  97.6154 240.1084 0149345 333.2113  26.1445 14.88820943 25540
2025-313D               
1 67251U 25313D   26169.68898875  .00001152  00000+0  10380-3 0  9991
2 67251  97.5689 239.9488 0147693 322.6205  36.4809 14.89640861 25622
