OBJECT_NAME,OBJECT_ID,EPOCH,MEAN_MOTION,ECCENTRICITY,INCLINATION,RA_OF_ASC_NODE,ARG_OF_PERICENTER,MEAN_ANOMALY,EPHEMERIS_TYPE,CLASSIFICATION_TYPE,NORAD_CAT_ID,ELEMENT_SET_NO,REV_AT_EPOCH,BSTAR,MEAN_MOTION_DOT,MEAN_MOTION_DDOT
STARLINK-36280,2025-304V,2026-06-18T16:23:18.081024,14.98337162,.0002924,70.0010,279.7705,267.5238,92.5586,0,U,67211,999,2901,.25179E-3,.2913E-4,0
STARLINK-36213,2025-304W,2026-06-18T16:11:18.643776,14.98311200,.0003367,70.0015,279.7374,279.3510,80.7268,0,U,67212,999,2901,-.80765E-4,-.1056E-4,0
STARLINK-36199,2025-304X,2026-06-18T14:17:06.381600,14.98340173,.0003645,70.0014,279.8625,267.6435,92.4307,0,U,67213,999,2900,.28562E-3,.3318E-4,0
STARLINK-36203,2025-304Y,2026-06-18T14:05:22.151616,14.98342989,.0003193,70.0013,280.2343,268.5584,91.5210,0,U,67214,999,2899,.4793E-3,.5633E-4,0
STARLINK-36221,2025-304Z,2026-06-18T07:28:48.417600,14.98336991,.0003298,70.0011,280.8778,268.7456,91.3325,0,U,67215,999,2895,.20053E-3,.2301E-4,0
STARLINK-36212,2025-304AA,2026-06-18T15:17:27.559392,14.98332898,.0003255,70.0017,280.0059,268.8936,91.1850,0,U,67216,999,2900,.17481E-3,.1994E-4,0
STARLINK-36216,2025-304AB,2026-06-18T16:41:34.291392,14.98331671,.0003128,70.0019,279.8089,268.2843,91.7957,0,U,67217,999,2900,.12934E-3,.1451E-4,0
STARLINK-36211,2025-304AC,2026-06-18T16:29:32.894592,14.98332892,.0003338,70.0012,279.7779,267.8988,92.1789,0,U,67218,999,2898,.13673E-3,.1539E-4,0
DISKSAT C,2025-305A,2026-06-18T02:31:21.544608,15.09829049,.00057801,45.0021,78.1076,180.2563,179.8311,0,U,67219,999,2746,.53210539E-3,.8509E-4,0
DISKSAT B,2025-305B,2026-06-18T02:13:45.877440,15.08768129,.00042325,45.0008,78.8386,177.1747,182.9154,0,U,67220,999,2745,.26515086E-3,.3989E-4,0
DISKSAT D,2025-305C,2026-06-15T12:11:19.697568,15.09040086,.00044052,45.0034,92.5171,171.9399,188.1548,0,U,67221,999,2706,.1977893E-3,.2936E-4,0
DISKSAT A,2025-305D,2026-06-18T10:51:43.699104,15.09629044,.000522,45.0010,76.4720,187.9797,172.0997,0,U,67222,999,2750,.39735E-3,.6253E-4,0
TJS-23,2025-306A,2026-06-18T14:20:53.397600,1.00275797,.0005414,5.5850,297.4791,171.6767,188.4971,0,U,67226,999,190,0,.12E-6,0
QPS-SAR-15 (SUKUNAMI-I),2025-307A,2026-06-18T12:07:28.027200,14.99001714,.0010122,42.0051,220.6622,356.7086,3.3671,0,U,67228,999,2688,.23286E-3,.2688E-4,0
SPACEMOBILE-006,2025-309A,2026-06-18T16:31:17.295168,15.18533247,.0012023,52.9949,324.7568,133.7896,226.4094,0,U,67232,999,2682,.11386E-3,.2061E-4,0
OBZOR-R 1,2025-310A,2026-06-17T23:21:56.915424,14.75885910,.00011585,97.9634,176.2488,89.1702,270.9640,0,U,67234,999,2574,.20306095E-4,.89E-6,0
HULIANWANG DIGUI-128,2025-311A,2026-06-18T12:57:41.785344,13.29322313,.0001035,50.0076,110.6961,334.2956,25.7864,0,U,67236,999,2352,.475E-4,-.102E-5,0
HULIANWANG DIGUI-129,2025-311B,2026-06-18T13:09:39.599136,13.29323624,.0000972,50.0067,110.7228,334.1893,25.8930,0,U,67237,999,2352,.47459E-4,-.102E-5,0
HULIANWANG DIGUI-130,2025-311C,2026-06-18T12:33:37.453824,13.29322200,.0001083,50.0050,111.2182,332.9351,27.1465,0,U,67238,999,2351,.49332E-4,-.101E-5,0
HULIANWANG DIGUI-131,2025-311D,2026-06-18T12:45:40.004928,13.29322025,.0001077,50.0042,111.2546,335.1035,24.9785,0,U,67239,999,2351,.49385E-4,-.101E-5,0
HULIANWANG DIGUI-132,2025-311E,2026-06-18T13:57:48.653568,13.29322829,.0001046,50.0056,110.8739,331.2594,28.8220,0,U,67240,999,2352,.64781E-4,-.94E-6,0
HULIANWANG DIGUI-133,2025-311F,2026-06-18T13:33:46.850112,13.29322794,.0001011,50.0099,110.8531,334.1190,25.9632,0,U,67241,999,2352,.65563E-4,-.94E-6,0
HULIANWANG DIGUI-134,2025-311G,2026-06-18T13:45:46.198368,13.29322414,.0001031,50.0027,110.7944,334.0934,25.9886,0,U,67242,999,2352,.63818E-4,-.94E-6,0
HULIANWANG DIGUI-135,2025-311H,2026-06-18T12:21:34.298784,13.29322268,.0001073,50.0015,111.1293,331.4995,28.5818,0,U,67243,999,2351,.61612E-4,-.95E-6,0
HULIANWANG DIGUI-136,2025-311J,2026-06-18T13:21:42.253056,13.29323166,.0000966,50.0086,110.7924,333.8808,26.2016,0,U,67244,999,2352,.56345E-4,-.98E-6,0
FENGYUN 4C,2025-312A,2026-06-18T16:35:31.835616,1.00271547,.0000372,0.0466,138.8787,72.0370,77.8882,0,U,67246,999,179,0,-.329E-5,0
2025-313A,2025-313A,2026-06-18T16:37:30.633024,14.67278440,.0276766,97.5426,233.9421,332.2440,26.4222,0,U,67248,999,2524,.72451E-4,.664E-5,0
2025-313B,2025-313B,2026-06-18T14:14:12.930144,14.74275718,.0291793,97.5116,234.8949,330.9828,27.5425,0,U,67249,999,2534,.12241E-3,.1548E-4,0
2025-313C,2025-313C,2026-06-18T10:41:35.558016,14.88820943,.0149345,97.6154,240.1084,333.2113,26.1445,0,U,67250,999,2554,.50905E-3,.5812E-4,0
2025-313D,2025-313D,2026-06-18T16:32:08.628000,14.89640861,.0147693,97.5689,239.9488,322.6205,36.4809,0,U,67251,999,2562,.1038E-3,.1152E-4,0
